CCSDS_OMM_VERS = 2.0
CREATION_DATE  = 
ORIGINATOR     = 

OBJECT_NAME    = UNKNOWN
OBJECT_ID      = 
CENTER_NAME    = EARTH
REF_FRAME      = TEME
TIME_SYSTEM    = UTC
MEAN_ELEMENT_THEORY = SGP/SGP4

EPOCH          = 2026-01-07T12:17:55.006080
MEAN_MOTION    = 9.05031645
ECCENTRICITY   = .2862546
INCLINATION    = 84.3018
RA_OF_ASC_NODE = 97.1354
ARG_OF_PERICENTER = 312.2832
MEAN_ANOMALY   = 35.9082

EPHEMERIS_TYPE = 0
CLASSIFICATION_TYPE = U
NORAD_CAT_ID   = 89304
ELEMENT_SET_NO = 999
REV_AT_EPOCH   = 44073
BSTAR          = .32744E-1
MEAN_MOTION_DOT = .31055E-3
MEAN_MOTION_DDOT = 0

CCSDS_OMM_VERS = 2.0
CREATION_DATE  = 
ORIGINATOR     = 

OBJECT_NAME    = UNKNOWN
OBJECT_ID      = 
CENTER_NAME    = EARTH
REF_FRAME      = TEME
TIME_SYSTEM    = UTC
MEAN_ELEMENT_THEORY = SGP/SGP4

EPOCH          = 2026-01-04T23:54:05.468832
MEAN_MOTION    = 12.96254383
ECCENTRICITY   = .0029129
INCLINATION    = 90.2431
RA_OF_ASC_NODE = 7.8658
ARG_OF_PERICENTER = 203.1604
MEAN_ANOMALY   = 156.8205

EPHEMERIS_TYPE = 0
CLASSIFICATION_TYPE = U
NORAD_CAT_ID   = 89349
ELEMENT_SET_NO = 999
REV_AT_EPOCH   = 48176
BSTAR          = .1823E-2
MEAN_MOTION_DOT = .528E-5
MEAN_MOTION_DDOT = 0

CCSDS_OMM_VERS = 2.0
CREATION_DATE  = 
ORIGINATOR     = 

OBJECT_NAME    = UNKNOWN
OBJECT_ID      = 
CENTER_NAME    = EARTH
REF_FRAME      = TEME
TIME_SYSTEM    = UTC
MEAN_ELEMENT_THEORY = SGP/SGP4

EPOCH          = 2026-01-08T06:55:00.213024
MEAN_MOTION    = 13.62963311
ECCENTRICITY   = .0039811
INCLINATION    = 100.4802
RA_OF_ASC_NODE = 30.5317
ARG_OF_PERICENTER = 62.8565
MEAN_ANOMALY   = 297.6625

EPHEMERIS_TYPE = 0
CLASSIFICATION_TYPE = U
NORAD_CAT_ID   = 89379
ELEMENT_SET_NO = 999
REV_AT_EPOCH   = 58439
BSTAR          = .55502E-2
MEAN_MOTION_DOT = .4319E-4
MEAN_MOTION_DDOT = 0

CCSDS_OMM_VERS = 2.0
CREATION_DATE  = 
ORIGINATOR     = 

OBJECT_NAME    = UNKNOWN
OBJECT_ID      = 
CENTER_NAME    = EARTH
REF_FRAME      = TEME
TIME_SYSTEM    = UTC
MEAN_ELEMENT_THEORY = SGP/SGP4

EPOCH          = 2026-01-07T20:55:33.320352
MEAN_MOTION    = 12.01507610
ECCENTRICITY   = .02233
INCLINATION    = 102.3751
RA_OF_ASC_NODE = 339.6615
ARG_OF_PERICENTER = 80.3627
MEAN_ANOMALY   = 340.3436

EPHEMERIS_TYPE = 0
CLASSIFICATION_TYPE = U
NORAD_CAT_ID   = 89395
ELEMENT_SET_NO = 999
REV_AT_EPOCH   = 52788
BSTAR          = -.51394E-3
MEAN_MOTION_DOT = -.86E-6
MEAN_MOTION_DDOT = 0

CCSDS_OMM_VERS = 2.0
CREATION_DATE  = 
ORIGINATOR     = 

OBJECT_NAME    = UNKNOWN
OBJECT_ID      = 
CENTER_NAME    = EARTH
REF_FRAME      = TEME
TIME_SYSTEM    = UTC
MEAN_ELEMENT_THEORY = SGP/SGP4

EPOCH          = 2026-01-05T06:47:34.781280
MEAN_MOTION    = 12.98774025
ECCENTRICITY   = .0028843
INCLINATION    = 90.2451
RA_OF_ASC_NODE = 6.3324
ARG_OF_PERICENTER = 154.1672
MEAN_ANOMALY   = 221.1220

EPHEMERIS_TYPE = 0
CLASSIFICATION_TYPE = U
NORAD_CAT_ID   = 89403
ELEMENT_SET_NO = 999
REV_AT_EPOCH   = 48088
BSTAR          = .28665E-2
MEAN_MOTION_DOT = .856E-5
MEAN_MOTION_DDOT = 0

CCSDS_OMM_VERS = 2.0
CREATION_DATE  = 
ORIGINATOR     = 

OBJECT_NAME    = UNKNOWN
OBJECT_ID      = 
CENTER_NAME    = EARTH
REF_FRAME      = TEME
TIME_SYSTEM    = UTC
MEAN_ELEMENT_THEORY = SGP/SGP4

EPOCH          = 2026-01-08T15:51:27.631872
MEAN_MOTION    = 9.16523503
ECCENTRICITY   = .2859449
INCLINATION    = 83.9873
RA_OF_ASC_NODE = 146.9570
ARG_OF_PERICENTER = 350.9878
MEAN_ANOMALY   = 4.8613

EPHEMERIS_TYPE = 0
CLASSIFICATION_TYPE = U
NORAD_CAT_ID   = 89484
ELEMENT_SET_NO = 999
REV_AT_EPOCH   = 35790
BSTAR          = .29869E-1
MEAN_MOTION_DOT = .44141E-3
MEAN_MOTION_DDOT = 0

CCSDS_OMM_VERS = 2.0
CREATION_DATE  = 
ORIGINATOR     = 

OBJECT_NAME    = UNKNOWN
OBJECT_ID      = 
CENTER_NAME    = EARTH
REF_FRAME      = TEME
TIME_SYSTEM    = UTC
MEAN_ELEMENT_THEORY = SGP/SGP4

EPOCH          = 2026-01-08T03:28:30.539424
MEAN_MOTION    = 14.16422289
ECCENTRICITY   = .0080294
INCLINATION    = 99.0259
RA_OF_ASC_NODE = 82.3743
ARG_OF_PERICENTER = 324.3918
MEAN_ANOMALY   = 35.1914

EPHEMERIS_TYPE = 0
CLASSIFICATION_TYPE = U
NORAD_CAT_ID   = 89493
ELEMENT_SET_NO = 999
REV_AT_EPOCH   = 46768
BSTAR          = .11439E-2
MEAN_MOTION_DOT = .23E-4
MEAN_MOTION_DDOT = 0

CCSDS_OMM_VERS = 2.0
CREATION_DATE  = 
ORIGINATOR     = 

OBJECT_NAME    = UNKNOWN
OBJECT_ID      = 
CENTER_NAME    = EARTH
REF_FRAME      = TEME
TIME_SYSTEM    = UTC
MEAN_ELEMENT_THEORY = SGP/SGP4

EPOCH          = 2026-01-06T15:30:37.792800
MEAN_MOTION    = 14.16347803
ECCENTRICITY   = .0080631
INCLINATION    = 99.0237
RA_OF_ASC_NODE = 80.7351
ARG_OF_PERICENTER = 329.0086
MEAN_ANOMALY   = 30.6343

EPHEMERIS_TYPE = 0
CLASSIFICATION_TYPE = U
NORAD_CAT_ID   = 89494
ELEMENT_SET_NO = 999
REV_AT_EPOCH   = 46732
BSTAR          = .14445E-2
MEAN_MOTION_DOT = .2914E-4
MEAN_MOTION_DDOT = 0

