UNKNOWN                 
1 89304U          26007.51244220  .00031055  00000+0  32744-1 0  9993
2 89304  84.3018  97.1354 2862546 312.2832  35.9082  9.05031645440731
UNKNOWN                 
1 89349U          26004.99589663  .00000528  00000+0  18230-2 0  9990
2 89349  90.2431   7.8658 0029129 203.1604 156.8205 12.96254383481763
UNKNOWN                 
1 89379U          26008.28819691  .00004319  00000+0  55502-2 0  9991
2 89379 100.4802  30.5317 0039811  62.8565 297.6625 13.62963311584397
UNKNOWN                 
1 89395U          26007.87191343 -.00000086  00000+0 -51394-3 0  9995
2 89395 102.3751 339.6615 0223300  80.3627 340.3436 12.01507610527880
UNKNOWN                 
1 89403U          26005.28304145  .00000856  00000+0  28665-2 0  9991
2 89403  90.2451   6.3324 0028843 154.1672 221.1220 12.98774025480889
UNKNOWN                 
1 89484U          26008.66073648  .00044141  00000+0  29869-1 0  9997
2 89484  83.9873 146.9570 2859449 350.9878   4.8613  9.16523503357906
UNKNOWN                 
1 89493U          26008.14479791  .00002300  00000+0  11439-2 0  9995
2 89493  99.0259  82.3743 0080294 324.3918  35.1914 14.16422289467682
UNKNOWN                 
1 89494U          26006.64627075  .00002914  00000+0  14445-2 0  9990
2 89494  99.0237  80.7351 0080631 329.0086  30.6343 14.16347803467324
